CCSDS_OMM_VERS = 2.0
CREATION_DATE  = 
ORIGINATOR     = 

OBJECT_NAME    = STARLINK-35538
OBJECT_ID      = 2025-262V
CENTER_NAME    = EARTH
REF_FRAME      = TEME
TIME_SYSTEM    = UTC
MEAN_ELEMENT_THEORY = SGP/SGP4

EPOCH          = 2025-12-07T06:00:04.999968
MEAN_MOTION    = 15.50593994
ECCENTRICITY   = .0001592
INCLINATION    = 43.0007
RA_OF_ASC_NODE = 103.1421
ARG_OF_PERICENTER = 255.4110
MEAN_ANOMALY   = 49.3574

EPHEMERIS_TYPE = 0
CLASSIFICATION_TYPE = U
NORAD_CAT_ID   = 66475
ELEMENT_SET_NO = 999
REV_AT_EPOCH   = 475
BSTAR          = -.11055763E-2
MEAN_MOTION_DOT = -.64702E-3
MEAN_MOTION_DDOT = 0

CCSDS_OMM_VERS = 2.0
CREATION_DATE  = 
ORIGINATOR     = 

OBJECT_NAME    = STARLINK-35372
OBJECT_ID      = 2025-262W
CENTER_NAME    = EARTH
REF_FRAME      = TEME
TIME_SYSTEM    = UTC
MEAN_ELEMENT_THEORY = SGP/SGP4

EPOCH          = 2025-12-07T06:00:04.999968
MEAN_MOTION    = 15.50571052
ECCENTRICITY   = .00016993
INCLINATION    = 43.0006
RA_OF_ASC_NODE = 103.1371
ARG_OF_PERICENTER = 257.9491
MEAN_ANOMALY   = 48.7376

EPHEMERIS_TYPE = 0
CLASSIFICATION_TYPE = U
NORAD_CAT_ID   = 66476
ELEMENT_SET_NO = 999
REV_AT_EPOCH   = 464
BSTAR          = -.39576964E-3
MEAN_MOTION_DOT = -.23484E-3
MEAN_MOTION_DDOT = 0

CCSDS_OMM_VERS = 2.0
CREATION_DATE  = 
ORIGINATOR     = 

OBJECT_NAME    = STARLINK-35354
OBJECT_ID      = 2025-262X
CENTER_NAME    = EARTH
REF_FRAME      = TEME
TIME_SYSTEM    = UTC
MEAN_ELEMENT_THEORY = SGP/SGP4

EPOCH          = 2025-12-07T06:00:04.999968
MEAN_MOTION    = 15.50602002
ECCENTRICITY   = .00014205
INCLINATION    = 43.0006
RA_OF_ASC_NODE = 103.1265
ARG_OF_PERICENTER = 258.5041
MEAN_ANOMALY   = 52.0111

EPHEMERIS_TYPE = 0
CLASSIFICATION_TYPE = U
NORAD_CAT_ID   = 66477
ELEMENT_SET_NO = 999
REV_AT_EPOCH   = 475
BSTAR          = -.13252093E-2
MEAN_MOTION_DOT = -.77384E-3
MEAN_MOTION_DDOT = 0

CCSDS_OMM_VERS = 2.0
CREATION_DATE  = 
ORIGINATOR     = 

OBJECT_NAME    = STARLINK-35283
OBJECT_ID      = 2025-262Y
CENTER_NAME    = EARTH
REF_FRAME      = TEME
TIME_SYSTEM    = UTC
MEAN_ELEMENT_THEORY = SGP/SGP4

EPOCH          = 2025-12-07T06:00:04.999968
MEAN_MOTION    = 15.50525786
ECCENTRICITY   = .00015966
INCLINATION    = 43.0006
RA_OF_ASC_NODE = 103.1211
ARG_OF_PERICENTER = 259.4412
MEAN_ANOMALY   = 53.0103

EPHEMERIS_TYPE = 0
CLASSIFICATION_TYPE = U
NORAD_CAT_ID   = 66478
ELEMENT_SET_NO = 999
REV_AT_EPOCH   = 475
BSTAR          = .11844418E-2
MEAN_MOTION_DOT = .69632E-3
MEAN_MOTION_DDOT = 0

CCSDS_OMM_VERS = 2.0
CREATION_DATE  = 
ORIGINATOR     = 

OBJECT_NAME    = STARLINK-35581
OBJECT_ID      = 2025-262Z
CENTER_NAME    = EARTH
REF_FRAME      = TEME
TIME_SYSTEM    = UTC
MEAN_ELEMENT_THEORY = SGP/SGP4

EPOCH          = 2025-12-07T06:00:04.999968
MEAN_MOTION    = 15.50585956
ECCENTRICITY   = .00014278
INCLINATION    = 43.0006
RA_OF_ASC_NODE = 103.1307
ARG_OF_PERICENTER = 259.6745
MEAN_ANOMALY   = 48.9288

EPHEMERIS_TYPE = 0
CLASSIFICATION_TYPE = U
NORAD_CAT_ID   = 66479
ELEMENT_SET_NO = 999
REV_AT_EPOCH   = 475
BSTAR          = -.82809014E-3
MEAN_MOTION_DOT = -.48632E-3
MEAN_MOTION_DDOT = 0

CCSDS_OMM_VERS = 2.0
CREATION_DATE  = 
ORIGINATOR     = 

OBJECT_NAME    = STARLINK-35670
OBJECT_ID      = 2025-262AA
CENTER_NAME    = EARTH
REF_FRAME      = TEME
TIME_SYSTEM    = UTC
MEAN_ELEMENT_THEORY = SGP/SGP4

EPOCH          = 2025-12-07T06:00:04.999968
MEAN_MOTION    = 15.50600423
ECCENTRICITY   = .00014145
INCLINATION    = 43.0007
RA_OF_ASC_NODE = 103.1160
ARG_OF_PERICENTER = 258.3335
MEAN_ANOMALY   = 56.0179

EPHEMERIS_TYPE = 0
CLASSIFICATION_TYPE = U
NORAD_CAT_ID   = 66480
ELEMENT_SET_NO = 999
REV_AT_EPOCH   = 475
BSTAR          = -.13027882E-2
MEAN_MOTION_DOT = -.76089E-3
MEAN_MOTION_DDOT = 0

CCSDS_OMM_VERS = 2.0
CREATION_DATE  = 
ORIGINATOR     = 

OBJECT_NAME    = STARLINK-35698
OBJECT_ID      = 2025-262AB
CENTER_NAME    = EARTH
REF_FRAME      = TEME
TIME_SYSTEM    = UTC
MEAN_ELEMENT_THEORY = SGP/SGP4

EPOCH          = 2025-12-07T06:00:04.999968
MEAN_MOTION    = 15.50594608
ECCENTRICITY   = .00015488
INCLINATION    = 43.0007
RA_OF_ASC_NODE = 103.1105
ARG_OF_PERICENTER = 261.2057
MEAN_ANOMALY   = 55.0689

EPHEMERIS_TYPE = 0
CLASSIFICATION_TYPE = U
NORAD_CAT_ID   = 66481
ELEMENT_SET_NO = 999
REV_AT_EPOCH   = 475
BSTAR          = -.11206291E-2
MEAN_MOTION_DOT = -.65572E-3
MEAN_MOTION_DDOT = 0

CCSDS_OMM_VERS = 2.0
CREATION_DATE  = 
ORIGINATOR     = 

OBJECT_NAME    = STARLINK-35648
OBJECT_ID      = 2025-262AC
CENTER_NAME    = EARTH
REF_FRAME      = TEME
TIME_SYSTEM    = UTC
MEAN_ELEMENT_THEORY = SGP/SGP4

EPOCH          = 2025-12-07T06:00:04.999968
MEAN_MOTION    = 15.50507303
ECCENTRICITY   = .0001318
INCLINATION    = 43.0006
RA_OF_ASC_NODE = 103.1058
ARG_OF_PERICENTER = 256.7618
MEAN_ANOMALY   = 61.5421

EPHEMERIS_TYPE = 0
CLASSIFICATION_TYPE = U
NORAD_CAT_ID   = 66482
ELEMENT_SET_NO = 999
REV_AT_EPOCH   = 460
BSTAR          = .28713869E-3
MEAN_MOTION_DOT = .16496E-3
MEAN_MOTION_DDOT = 0

CCSDS_OMM_VERS = 2.0
CREATION_DATE  = 
ORIGINATOR     = 

OBJECT_NAME    = STARLINK-35654
OBJECT_ID      = 2025-262AD
CENTER_NAME    = EARTH
REF_FRAME      = TEME
TIME_SYSTEM    = UTC
MEAN_ELEMENT_THEORY = SGP/SGP4

EPOCH          = 2025-12-07T06:00:04.999968
MEAN_MOTION    = 15.50588195
ECCENTRICITY   = .0001405
INCLINATION    = 43.0007
RA_OF_ASC_NODE = 103.1004
ARG_OF_PERICENTER = 260.5941
MEAN_ANOMALY   = 59.5154

EPHEMERIS_TYPE = 0
CLASSIFICATION_TYPE = U
NORAD_CAT_ID   = 66483
ELEMENT_SET_NO = 999
REV_AT_EPOCH   = 475
BSTAR          = -.92539006E-3
MEAN_MOTION_DOT = -.54272E-3
MEAN_MOTION_DDOT = 0

CCSDS_OMM_VERS = 2.0
CREATION_DATE  = 
ORIGINATOR     = 

OBJECT_NAME    = STARLINK-35371
OBJECT_ID      = 2025-262AE
CENTER_NAME    = EARTH
REF_FRAME      = TEME
TIME_SYSTEM    = UTC
MEAN_ELEMENT_THEORY = SGP/SGP4

EPOCH          = 2025-12-07T06:00:04.999968
MEAN_MOTION    = 15.50587552
ECCENTRICITY   = .0001543
INCLINATION    = 43.0005
RA_OF_ASC_NODE = 103.0968
ARG_OF_PERICENTER = 259.9284
MEAN_ANOMALY   = 62.0955

EPHEMERIS_TYPE = 0
CLASSIFICATION_TYPE = U
NORAD_CAT_ID   = 66484
ELEMENT_SET_NO = 999
REV_AT_EPOCH   = 475
BSTAR          = -.88055094E-3
MEAN_MOTION_DOT = -.51675E-3
MEAN_MOTION_DDOT = 0

CCSDS_OMM_VERS = 2.0
CREATION_DATE  = 
ORIGINATOR     = 

OBJECT_NAME    = STARLINK-34774
OBJECT_ID      = 2025-263A
CENTER_NAME    = EARTH
REF_FRAME      = TEME
TIME_SYSTEM    = UTC
MEAN_ELEMENT_THEORY = SGP/SGP4

EPOCH          = 2025-12-07T06:00:04.999968
MEAN_MOTION    = 15.55001839
ECCENTRICITY   = .00012745
INCLINATION    = 43.0001
RA_OF_ASC_NODE = 157.2951
ARG_OF_PERICENTER = 266.3758
MEAN_ANOMALY   = 287.2725

EPHEMERIS_TYPE = 0
CLASSIFICATION_TYPE = U
NORAD_CAT_ID   = 66485
ELEMENT_SET_NO = 999
REV_AT_EPOCH   = 475
BSTAR          = -.3403132E-1
MEAN_MOTION_DOT = -.2085701E-1
MEAN_MOTION_DDOT = 0

CCSDS_OMM_VERS = 2.0
CREATION_DATE  = 
ORIGINATOR     = 

OBJECT_NAME    = STARLINK-34844
OBJECT_ID      = 2025-263B
CENTER_NAME    = EARTH
REF_FRAME      = TEME
TIME_SYSTEM    = UTC
MEAN_ELEMENT_THEORY = SGP/SGP4

EPOCH          = 2025-12-07T06:00:04.999968
MEAN_MOTION    = 15.54990101
ECCENTRICITY   = .00012715
INCLINATION    = 43.0002
RA_OF_ASC_NODE = 157.2894
ARG_OF_PERICENTER = 270.9634
MEAN_ANOMALY   = 284.6102

EPHEMERIS_TYPE = 0
CLASSIFICATION_TYPE = U
NORAD_CAT_ID   = 66486
ELEMENT_SET_NO = 999
REV_AT_EPOCH   = 470
BSTAR          = -.33810534E-1
MEAN_MOTION_DOT = -.2072837E-1
MEAN_MOTION_DDOT = 0

