STARLINK-35538          
1 66475U 25262V   25341.25005787 -.00064702  00000+0 -11056-2 0  9999
2 66475  43.0007 103.1421 0001592 255.4110  49.3574 15.50593994  4759
STARLINK-35372          
1 66476U 25262W   25341.25005787 -.00023484  00000+0 -39577-3 0  9991
2 66476  43.0006 103.1371 0001699 257.9491  48.7376 15.50571052  4642
STARLINK-35354          
1 66477U 25262X   25341.25005787 -.00077384  00000+0 -13252-2 0  9991
2 66477  43.0006 103.1265 0001420 258.5041  52.0111 15.50602002  4752
STARLINK-35283          
1 66478U 25262Y   25341.25005787  .00069632  00000+0  11844-2 0  9992
2 66478  43.0006 103.1211 0001596 259.4412  53.0103 15.50525786  4755
STARLINK-35581          
1 66479U 25262Z   25341.25005787 -.00048632  00000+0 -82809-3 0  9992
2 66479  43.0006 103.1307 0001427 259.6745  48.9288 15.50585956  4758
STARLINK-35670          
1 66480U 25262AA  25341.25005787 -.00076089  00000+0 -13028-2 0  9997
2 66480  43.0007 103.1160 0001414 258.3335  56.0179 15.50600423  4751
STARLINK-35698          
1 66481U 25262AB  25341.25005787 -.00065572  00000+0 -11206-2 0  9999
2 66481  43.0007 103.1105 0001548 261.2057  55.0689 15.50594608  4755
STARLINK-35648          
1 66482U 25262AC  25341.25005787  .00016496  00000+0  28714-3 0  9992
2 66482  43.0006 103.1058 0001318 256.7618  61.5421 15.50507303  4605
STARLINK-35654          
1 66483U 25262AD  25341.25005787 -.00054272  00000+0 -92539-3 0  9995
2 66483  43.0007 103.1004 0001405 260.5941  59.5154 15.50588195  4751
STARLINK-35371          
1 66484U 25262AE  25341.25005787 -.00051675  00000+0 -88055-3 0  9998
2 66484  43.0005 103.0968 0001543 259.9284  62.0955 15.50587552  4757
STARLINK-34774          
1 66485U 25263A   25341.25005787 -.02085701  00000+0 -34031-1 0  9992
2 66485  43.0001 157.2951 0001274 266.3758 287.2725 15.55001839  4756
STARLINK-34844          
1 66486U 25263B   25341.25005787 -.02072837  00000+0 -33811-1 0  9994
2 66486  43.0002 157.2894 0001271 270.9634 284.6102 15.54990101  4708
